{"fetched_at":"2026-07-06T08:46:38.495Z","source":"https://celestrak.org/NORAD/elements/gp.php?GROUP=oneweb&FORMAT=JSON","constellation":"oneweb","records":[{"OBJECT_NAME":"ONEWEB-0701","OBJECT_ID":"2024-188P","EPOCH":"2026-07-05T13:26:00.612384","CLASSIFICATION_TYPE":"U","MEAN_MOTION":13.10373131,"ECCENTRICITY":0.00023215,"INCLINATION":87.8822,"RA_OF_ASC_NODE":32.6051,"ARG_OF_PERICENTER":105.4207,"MEAN_ANOMALY":254.7177,"EPHEMERIS_TYPE":0,"NORAD_CAT_ID":61607,"ELEMENT_SET_NO":999,"REV_AT_EPOCH":8571,"BSTAR":0.0016970287,"MEAN_MOTION_DOT":0.00000605,"MEAN_MOTION_DDOT":0},{"OBJECT_NAME":"ONEWEB-0702","OBJECT_ID":"2024-188Q","EPOCH":"2026-07-05T11:36:01.573056","CLASSIFICATION_TYPE":"U","MEAN_MOTION":13.1141611,"ECCENTRICITY":0.0002733,"INCLINATION":87.8898,"RA_OF_ASC_NODE":17.3467,"ARG_OF_PERICENTER":101.8825,"MEAN_ANOMALY":258.2609,"EPHEMERIS_TYPE":0,"NORAD_CAT_ID":61608,"ELEMENT_SET_NO":999,"REV_AT_EPOCH":8688,"BSTAR":-0.0014395,"MEAN_MOTION_DOT":-0.00000497,"MEAN_MOTION_DDOT":0},{"OBJECT_NAME":"ONEWEB-0704","OBJECT_ID":"2024-188R","EPOCH":"2026-07-05T02:09:08.676000","CLASSIFICATION_TYPE":"U","MEAN_MOTION":13.10376036,"ECCENTRICITY":0.0002753,"INCLINATION":87.8827,"RA_OF_ASC_NODE":32.6887,"ARG_OF_PERICENTER":98.1775,"MEAN_ANOMALY":261.9665,"EPHEMERIS_TYPE":0,"NORAD_CAT_ID":61609,"ELEMENT_SET_NO":999,"REV_AT_EPOCH":8563,"BSTAR":0.00013041,"MEAN_MOTION_DOT":5.8e-7,"MEAN_MOTION_DDOT":0},{"OBJECT_NAME":"ONEWEB-0705","OBJECT_ID":"2024-188S","EPOCH":"2026-07-05T02:16:30.230112","CLASSIFICATION_TYPE":"U","MEAN_MOTION":13.10374648,"ECCENTRICITY":0.0002838,"INCLINATION":87.8829,"RA_OF_ASC_NODE":32.6934,"ARG_OF_PERICENTER":82.0596,"MEAN_ANOMALY":278.0853,"EPHEMERIS_TYPE":0,"NORAD_CAT_ID":61610,"ELEMENT_SET_NO":999,"REV_AT_EPOCH":7780,"BSTAR":0.001673,"MEAN_MOTION_DOT":0.00000597,"MEAN_MOTION_DDOT":0},{"OBJECT_NAME":"ONEWEB-0706","OBJECT_ID":"2024-188T","EPOCH":"2026-07-05T01:54:29.263968","CLASSIFICATION_TYPE":"U","MEAN_MOTION":13.10376677,"ECCENTRICITY":0.0002401,"INCLINATION":87.8825,"RA_OF_ASC_NODE":32.7007,"ARG_OF_PERICENTER":91.2958,"MEAN_ANOMALY":268.8445,"EPHEMERIS_TYPE":0,"NORAD_CAT_ID":61611,"ELEMENT_SET_NO":999,"REV_AT_EPOCH":8572,"BSTAR":-0.00097579,"MEAN_MOTION_DOT":-0.00000328,"MEAN_MOTION_DDOT":0},{"OBJECT_NAME":"ONEWEB-0707","OBJECT_ID":"2024-188U","EPOCH":"2026-07-05T13:03:58.904064","CLASSIFICATION_TYPE":"U","MEAN_MOTION":13.10374359,"ECCENTRICITY":0.000238,"INCLINATION":87.8829,"RA_OF_ASC_NODE":32.6028,"ARG_OF_PERICENTER":91.1734,"MEAN_ANOMALY":268.9666,"EPHEMERIS_TYPE":0,"NORAD_CAT_ID":61612,"ELEMENT_SET_NO":999,"REV_AT_EPOCH":8572,"BSTAR":0.00017991,"MEAN_MOTION_DOT":7.5e-7,"MEAN_MOTION_DDOT":0},{"OBJECT_NAME":"ONEWEB-0708","OBJECT_ID":"2024-188V","EPOCH":"2026-07-05T02:31:10.100064","CLASSIFICATION_TYPE":"U","MEAN_MOTION":13.10377139,"ECCENTRICITY":0.000222,"INCLINATION":87.8816,"RA_OF_ASC_NODE":32.7073,"ARG_OF_PERICENTER":74.7029,"MEAN_ANOMALY":285.4344,"EPHEMERIS_TYPE":0,"NORAD_CAT_ID":61613,"ELEMENT_SET_NO":999,"REV_AT_EPOCH":8564,"BSTAR":0.0019541,"MEAN_MOTION_DOT":0.00000695,"MEAN_MOTION_DDOT":0}]}
